{"type":"FeatureCollection","features":[{"type":"Feature","properties":{"Landmark":"Peoples Park","Link":"","Address":"2526 Haste Street/2448 Bowditch Street/2551 Dwight Way","Archichect + Data":-1969,"Designated":"19-Nov-84","Notes":"CA State Historic Resources Inventory"},"geometry":{"type":"Point","coordinates":[-122.2577085,37.86611636]}},{"type":"Feature","properties":{"Landmark":"John Muir Elementary","Link":"","Address":"2955 Claremont Avenue","Archichect + Data":"James W. Plachek (1915)","Designated":"18-Jul-83","Notes":"CA State Historic Resources Inventory"},"geometry":{"type":"Point","coordinates":[-122.245072,37.85728541]}},{"type":"Feature","properties":{"Landmark":"Berkeley Arts Magnet School","Link":"","Address":" 2015 Virginia St, Berkeley, CA 94709","Archichect + Data":"","Designated":"","Notes":""},"geometry":{"type":"Point","coordinates":[-122.2703095,37.87687477]}},{"type":"Feature","properties":{"Landmark":"Berkeley Public Library North Branch","Link":"","Address":"2090 Kittredge Street at Shattuck Avenue","Archichect + Data":"James W. Plachek (1930)","Designated":"19-Apr-82","Notes":"#82002156, National Register of Historic Places (1982)"},"geometry":{"type":"Point","coordinates":[-122.275407,37.8854787]}},{"type":"Feature","properties":{"Landmark":"Berkeley Shellmound","Link":"","Address":"Three blocks bounded by University Avenue, Hearst Avenue, I-880 and Fourth Street","Archichect + Data":"","Designated":"7-Feb-00","Notes":""},"geometry":{"type":"Point","coordinates":[-122.3005662,37.86814291]}},{"type":"Feature","properties":{"Landmark":"Harold E. Jones Child Study Center","Link":"","Address":"2425 Atherton Street","Archichect + Data":"Joseph Esherick (1958–1960)","Designated":"6-Jun-13","Notes":""},"geometry":{"type":"Point","coordinates":[-122.2642019,37.86563454]}},{"type":"Feature","properties":{"Landmark":"Berkeley Day Nursery","Link":"","Address":"2031 Sixth Street","Archichect + Data":"\tWalter H. Ratcliff, Jr. (1927)","Designated":"22-Feb-77","Notes":"#77000281, National Register of Historic Places (1977)"},"geometry":{"type":"Point","coordinates":[-122.2970383,37.86713583]}},{"type":"Feature","properties":{"Landmark":"Garfield Junior Highschool","Link":"","Address":"1414 Walnut Street at Rose Street","Archichect + Data":"Ernest Coxhead (1915)","Designated":"20-May-80","Notes":"#82002160, National Register of Historic Places (1982)"},"geometry":{"type":"Point","coordinates":[-122.2686331,37.8816984]}},{"type":"Feature","properties":{"Landmark":"Boon's University School","Link":"","Address":"2029 Durant Avenue","Archichect + Data":"(c. 1877–1878)","Designated":"16-Mar-81","Notes":"#82000994, National Register of Historic Places (1982)"},"geometry":{"type":"Point","coordinates":[-122.2688113,37.86686164]}},{"type":"Feature","properties":{"Landmark":"Anna Head School","Link":"","Address":"2538 Channing Way at Bowditch Street","Archichect + Data":"Soulï¿½ Edgar Fisher (1892); Walter H. Ratcliff, Jr. (1911–1927)","Designated":"16-Nov-81","Notes":"#80000795, National Register of Historic Places (1980)"},"geometry":{"type":"Point","coordinates":[-122.2572975,37.86663677]}}]}